[{"OBJECT_NAME":"STARLINK-30371","OBJECT_ID":"2023-131D","EPOCH":"2026-03-09T06:28:41.706624","MEAN_MOTION":15.02535192,"ECCENTRICITY":0.00015763,"INCLINATION":43.0017,"RA_OF_ASC_NODE":173.8442,"ARG_OF_PERICENTER":268.2057,"MEAN_ANOMALY":91.8605,"EPHEMERIS_TYPE":0,"CLASSIFICATION_TYPE":"U","NORAD_CAT_ID":57735,"ELEMENT_SET_NO":999,"REV_AT_EPOCH":13986,"BSTAR":-3.612813e-6,"MEAN_MOTION_DOT":-2.52e-6,"MEAN_MOTION_DDOT":0},{"OBJECT_NAME":"VELOX-PII","OBJECT_ID":"2013-066Y","EPOCH":"2026-03-09T19:57:03.071520","MEAN_MOTION":14.92474173,"ECCENTRICITY":0.00523549,"INCLINATION":97.8641,"RA_OF_ASC_NODE":20.1898,"ARG_OF_PERICENTER":313.6731,"MEAN_ANOMALY":46.0154,"EPHEMERIS_TYPE":0,"CLASSIFICATION_TYPE":"U","NORAD_CAT_ID":39438,"ELEMENT_SET_NO":999,"REV_AT_EPOCH":66301,"BSTAR":0.00044125176,"MEAN_MOTION_DOT":4.587e-5,"MEAN_MOTION_DDOT":0}]
